{
  "links" : {
    "next" : "https://api.nasa.gov/neo/rest/v1/feed?start_date=2005-10-16&end_date=2005-10-16&detailed=true&api_key=t0TVs3DtDT2H8Oy2Zy8m2eVrNsAVKAexjcZXUckd",
    "prev" : "https://api.nasa.gov/neo/rest/v1/feed?start_date=2005-10-14&end_date=2005-10-14&detailed=true&api_key=t0TVs3DtDT2H8Oy2Zy8m2eVrNsAVKAexjcZXUckd",
    "self" : "https://api.nasa.gov/neo/rest/v1/feed?start_date=2005-10-15&end_date=2005-10-15&detailed=true&api_key=t0TVs3DtDT2H8Oy2Zy8m2eVrNsAVKAexjcZXUckd"
  },
  "element_count" : 10,
  "near_earth_objects" : {
    "2005-10-15" : [ {
      "links" : {
        "self" : "https://api.nasa.gov/neo/rest/v1/neo/3290880?api_key=t0TVs3DtDT2H8Oy2Zy8m2eVrNsAVKAexjcZXUckd"
      },
      "neo_reference_id" : "3290880",
      "name" : "(2005 SL)",
      "nasa_jpl_url" : "http://ssd.jpl.nasa.gov/sbdb.cgi?sstr=3290880",
      "absolute_magnitude_h" : 22.9,
      "estimated_diameter" : {
        "kilometers" : {
          "estimated_diameter_min" : 0.0699125232,
          "estimated_diameter_max" : 0.1563291544
        },
        "meters" : {
          "estimated_diameter_min" : 69.9125232246,
          "estimated_diameter_max" : 156.3291544087
        },
        "miles" : {
          "estimated_diameter_min" : 0.0434416145,
          "estimated_diameter_max" : 0.097138403
        },
        "feet" : {
          "estimated_diameter_min" : 229.3718026961,
          "estimated_diameter_max" : 512.8909429502
        }
      },
      "is_potentially_hazardous_asteroid" : false,
      "close_approach_data" : [ {
        "close_approach_date" : "2005-10-15",
        "epoch_date_close_approach" : 1129359600000,
        "relative_velocity" : {
          "kilometers_per_second" : "6.7115945557",
          "kilometers_per_hour" : "24161.7404003784",
          "miles_per_hour" : "15013.1658615573"
        },
        "miss_distance" : {
          "astronomical" : "0.0864961014",
          "lunar" : "33.6469841003",
          "kilometers" : "12939632",
          "miles" : "8040315"
        },
        "orbiting_body" : "Earth"
      } ],
      "orbital_data" : {
        "orbit_id" : "10",
        "orbit_determination_date" : "2017-04-06 09:10:30",
        "orbit_uncertainty" : "8",
        "minimum_orbit_intersection" : ".0249195",
        "jupiter_tisserand_invariant" : "5.503",
        "epoch_osculation" : "2453637.5",
        "eccentricity" : ".2986068076780473",
        "semi_major_axis" : "1.126346462296618",
        "inclination" : "6.174119734199969",
        "ascending_node_longitude" : "176.2842222087279",
        "orbital_period" : "436.6228155573725",
        "perihelion_distance" : ".7900117408507632",
        "perihelion_argument" : "289.7466238570377",
        "aphelion_distance" : "1.462681183742474",
        "perihelion_time" : "2453725.194696981890",
        "mean_anomaly" : "287.6948208187896",
        "mean_motion" : ".8245102802070493",
        "equinox" : "J2000"
      }
    } ]
  }
}